OBJECT_NAME,OBJECT_ID,EPOCH,MEAN_MOTION,ECCENTRICITY,INCLINATION,RA_OF_ASC_NODE,ARG_OF_PERICENTER,MEAN_ANOMALY,EPHEMERIS_TYPE,CLASSIFICATION_TYPE,NORAD_CAT_ID,ELEMENT_SET_NO,REV_AT_EPOCH,BSTAR,MEAN_MOTION_DOT,MEAN_MOTION_DDOT
THURAYA-4,2025-001A,2026-07-08T03:38:38.480928,1.00273299,.0000098,0.0186,67.6579,178.5650,138.8476,0,U,62483,999,438,0,.154E-5,0
SHIJIAN-25 (SJ-25),2025-002A,2026-07-07T15:56:54.039840,1.00268764,.0052109,5.1585,61.0296,174.9674,56.1711,0,U,62485,999,556,0,-.338E-5,0
STARLINK-32713,2025-003A,2026-07-05T22:14:48.073920,15.27563507,.00004815,42.9973,341.3005,111.3311,248.7592,0,U,62487,999,8473,.14127563E-2,.38799E-3,0
STARLINK-32732,2025-003B,2026-07-07T11:06:24.311232,15.27598598,.00013494,43.0000,332.1767,183.7133,176.3709,0,U,62488,999,8487,.51371243E-3,.13909E-3,0
STARLINK-32328,2025-003C,2026-07-07T10:42:34.475040,15.27598383,.00014999,43.0028,332.9202,270.9346,89.1333,0,U,62489,999,8498,.55309901E-3,.14997E-3,0
STARLINK-32332,2025-003D,2026-07-07T10:25:54.812352,15.27593248,.00014725,43.0024,332.8340,272.9534,87.1149,0,U,62490,999,8496,.47629681E-3,.12873E-3,0
STARLINK-32717,2025-003E,2026-07-07T11:32:18.651552,15.27591762,.0001949,42.9995,332.3228,269.2839,90.7789,0,U,62491,999,8499,.5934945E-3,.16111E-3,0
STARLINK-32757,2025-003F,2026-07-07T10:35:10.690080,15.27556021,.0004299,43.0030,332.8793,295.9658,64.0751,0,U,62492,999,8486,.7111655E-3,.19348E-3,0
STARLINK-32731,2025-003G,2026-07-07T20:18:36.374112,15.27584425,.00014,43.0029,330.7624,263.1174,96.9518,0,U,62493,999,8504,.43035E-3,.116E-3,0
STARLINK-32694,2025-003H,2026-07-07T11:17:31.075584,15.27598719,.0001615,43.0026,332.2416,265.9912,94.0755,0,U,62494,999,8499,.51773117E-3,.1402E-3,0
STARLINK-32708,2025-003J,2026-07-07T19:54:33.170976,15.27617681,.000142,43.0033,330.6380,263.5442,96.5248,0,U,62495,999,8492,.63859E-3,.17372E-3,0
STARLINK-32718,2025-003K,2026-07-07T09:37:48.729216,15.27606154,.00017554,43.0027,332.5820,267.1946,92.8705,0,U,62496,999,8486,.69746765E-3,.18996E-3,0
STARLINK-32729,2025-003L,2026-07-07T09:48:53.759520,15.27594768,.00014607,43.0019,332.6362,240.4598,119.6108,0,U,62497,999,8498,.66299514E-3,.18035E-3,0
STARLINK-32739,2025-003M,2026-07-07T10:11:06.522720,15.27595888,.00026997,43.0039,332.7569,287.4654,72.5903,0,U,62498,999,8493,.55915667E-3,.15164E-3,0
STARLINK-32714,2025-003N,2026-07-07T17:08:25.324800,15.27622344,.0000943,42.9983,331.4863,234.3194,125.7570,0,U,62499,999,8502,.66493E-3,.18104E-3,0
STARLINK-32685,2025-003P,2026-07-07T09:06:34.019424,15.27594855,.00022093,43.0037,333.2807,273.4096,86.6503,0,U,62500,999,8492,.45822011E-3,.12374E-3,0
STARLINK-32691,2025-003Q,2026-07-07T21:08:21.456960,15.27614679,.000192,43.0015,330.1587,280.1581,79.9054,0,U,62501,999,8504,.6785E-3,.18476E-3,0
STARLINK-32788,2025-003R,2026-07-07T10:03:43.241472,15.27606228,.00008083,42.9990,332.7169,264.3200,95.7560,0,U,62502,999,8486,.77763077E-3,.21215E-3,0
STARLINK-32768,2025-003S,2026-07-07T11:13:49.287648,15.27603168,.00014003,43.0020,332.2152,269.7029,90.3663,0,U,62503,999,8487,.68692048E-3,.18702E-3,0
STARLINK-32792,2025-003T,2026-07-07T11:00:51.484608,15.27589671,.00021047,43.0050,332.1505,283.5720,76.4898,0,U,62504,999,8487,.40767567E-3,.10976E-3,0
STARLINK-32725,2025-003U,2026-07-07T20:27:38.693088,15.27601114,.0001387,43.0037,329.9297,294.1646,65.9061,0,U,62505,999,8493,.5214E-3,.14122E-3,0
STARLINK-32681,2025-003V,2026-07-07T10:17:58.702560,15.27596103,.00021594,43.0001,314.1987,267.7401,92.3203,0,U,62506,999,8519,.74735159E-3,.20371E-3,0
STARLINK-32679,2025-003W,2026-07-07T20:22:16.256064,15.27617537,.0001692,43.0046,330.7436,277.5985,82.4674,0,U,62507,999,8504,.796E-3,.21732E-3,0
STARLINK-32749,2025-003X,2026-07-07T17:45:13.735584,15.27606412,.0003079,43.0009,330.8217,293.0915,66.9612,0,U,62508,999,8491,.62213E-3,.16912E-3,0
STARLINK-32744,2025-003Y,2026-07-07T17:02:54.100032,15.27614031,.0002244,43.0036,331.4662,270.3432,89.7162,0,U,62509,999,8490,.87955E-3,.24046E-3,0
STARLINK-32701,2025-003Z,2026-07-07T21:13:53.861952,15.27615841,.0001562,43.0006,330.1895,300.0770,59.9926,0,U,62510,999,8493,.53727E-3,.14568E-3,0
STARLINK-11452 [DTC],2025-004A,2026-07-08T00:28:18.941088,15.70950971,.0002504,43.0005,65.3944,0.2903,359.7966,0,U,62511,999,8705,.10161E-2,.132653E-2,0
STARLINK-11443 [DTC],2025-004B,2026-07-08T01:14:10.688640,15.71051988,.0002024,42.9997,65.6498,291.9979,68.0674,0,U,62512,999,8613,.15377E-2,.20358E-2,0
STARLINK-11440 [DTC],2025-004C,2026-07-07T23:19:40.446624,15.70857577,.0002001,43.0009,65.9035,255.9590,104.1055,0,U,62513,999,8612,.15633E-2,.205334E-2,0
STARLINK-11514 [DTC],2025-004D,2026-07-08T03:25:05.006784,15.70852317,.0002088,43.0004,64.5897,260.5288,99.5343,0,U,62514,999,8615,.93233E-3,.121005E-2,0
STARLINK-11508 [DTC],2025-004E,2026-07-07T22:41:27.121920,15.70824588,.0002401,43.0000,65.6893,297.0963,62.9660,0,U,62515,999,8612,.97275E-3,.126205E-2,0
STARLINK-11510 [DTC],2025-004F,2026-07-07T03:37:02.481888,15.71092276,.00022749,42.9995,70.9267,285.8700,74.1917,0,U,62516,999,8599,.12830991E-2,.169383E-2,0
STARLINK-11512 [DTC],2025-004G,2026-07-08T01:21:38.126592,15.70858588,.0001013,42.9976,64.7987,317.5753,42.5036,0,U,62517,999,8614,.84246E-3,.109165E-2,0
STARLINK-11450 [DTC],2025-004H,2026-07-07T01:42:32.689152,15.71077128,.00027152,43.0000,71.1804,270.9073,89.1483,0,U,62518,999,8598,.16459423E-2,.218576E-2,0
STARLINK-11507 [DTC],2025-004J,2026-07-07T01:50:11.349600,15.70852567,.00023551,43.0003,71.2239,272.8580,87.2018,0,U,62519,999,8598,.10095047E-2,.131225E-2,0
STARLINK-11482 [DTC],2025-004K,2026-07-08T01:29:16.507104,15.70875311,.000235,42.9999,64.8384,286.7790,73.2819,0,U,62520,999,8614,.12939E-2,.16926E-2,0
STARLINK-11528 [DTC],2025-004L,2026-07-07T00:41:34.000800,15.70836133,.00018232,42.9998,71.7306,255.8063,104.2602,0,U,62521,999,8597,.10459577E-2,.135958E-2,0
STARLINK-11516 [DTC],2025-004M,2026-07-08T00:20:39.516000,15.70947589,.000287,42.9986,65.3431,265.4196,94.6344,0,U,62522,999,8613,.11571E-2,.151452E-2,0
STARLINK-11527 [DTC],2025-004N,2026-07-08T01:36:55.645344,15.70841249,.0001103,42.9994,64.8772,297.4927,62.5828,0,U,62523,999,8614,.11174E-2,.145475E-2,0
STARLINK-32748,2025-004P,2026-07-07T05:39:08.070912,15.27602973,.00011931,42.9974,264.5653,267.9918,92.0797,0,U,62524,999,8474,.65766562E-3,.17892E-3,0
STARLINK-32777,2025-004Q,2026-07-08T04:34:42.038112,15.27598562,.000244,43.0007,259.6982,297.0362,63.0240,0,U,62525,999,8488,.33172E-3,.8882E-4,0
STARLINK-32741,2025-004R,2026-07-08T04:18:44.536032,15.27602463,.0001636,43.0042,256.1529,279.4969,80.5698,0,U,62526,999,8492,.39709E-3,.10688E-3,0
STARLINK-32754,2025-004S,2026-07-07T06:01:19.406784,15.27677968,.000225,43.0002,264.6765,247.4511,112.6102,0,U,62527,999,8379,.16113218E-2,.4448E-3,0
STARLINK-32786,2025-004T,2026-07-08T04:45:35.407008,15.27602582,.0001795,43.0020,258.8965,282.3383,77.7268,0,U,62528,999,8394,.43623E-3,.11769E-3,0
STARLINK-32789,2025-004U,2026-07-08T04:08:47.799744,15.27602801,.0001144,43.0009,259.5536,245.4566,114.6166,0,U,62529,999,8488,.31451E-3,.8408E-4,0
STARLINK-32791,2025-004V,2026-07-07T05:50:16.418976,15.27611365,.00020304,42.9991,264.6174,278.6253,81.4368,0,U,62530,999,8474,.10467135E-2,.28681E-3,0
STARLINK-32785,2025-004W,2026-07-08T04:19:53.942016,15.27602418,.0002767,43.0021,259.6203,282.2206,77.8336,0,U,62531,999,8488,.38491E-3,.10352E-3,0
STARLINK-11538 [DTC],2025-006A,2026-07-07T23:18:39.581280,15.70847162,.0001387,42.9979,134.5176,228.8409,131.2339,0,U,62554,999,8552,.10528E-2,.136922E-2,0
STARLINK-11534 [DTC],2025-006B,2026-07-08T04:00:58.195008,15.70965105,.0002316,42.9986,133.4095,223.8281,136.2403,0,U,62555,999,8555,.10453E-2,.136628E-2,0
STARLINK-11515 [DTC],2025-006C,2026-07-07T06:08:44.792736,15.70984598,.00038872,42.9991,139.4970,249.8494,110.1956,0,U,62556,999,8540,.96872212E-3,.126563E-2,0
STARLINK-11478 [DTC],2025-006D,2026-07-07T07:09:43.919136,15.70859371,.00018704,43.0003,138.9458,284.7349,75.3312,0,U,62557,999,8541,.12674096E-2,.165594E-2,0
STARLINK-11358 [DTC],2025-006E,2026-07-08T04:23:55.098240,15.70857668,.0002754,43.0003,133.5337,247.7680,112.2895,0,U,62558,999,8555,.91432E-3,.11866E-2,0
STARLINK-11517 [DTC],2025-006F,2026-07-07T07:17:22.870752,15.70850405,.00010851,42.9985,138.9877,274.9238,85.1506,0,U,62559,999,8541,.81224264E-3,.105145E-2,0
STARLINK-11519 [DTC],2025-006G,2026-07-07T06:17:42.802944,15.70986262,.00028031,42.9996,139.5462,240.6932,119.3656,0,U,62560,999,8540,.10005069E-2,.130785E-2,0
STARLINK-11451 [DTC],2025-006H,2026-07-07T05:15:13.970016,15.70997501,.00030505,42.9996,139.1988,262.0677,97.9844,0,U,62561,999,8540,.11391372E-2,.149379E-2,0
STARLINK-11530 [DTC],2025-006J,2026-07-08T05:09:48.015648,15.70848081,.0001923,42.9995,133.7933,272.5855,87.4793,0,U,62562,999,8555,.78397E-3,.101417E-2,0
STARLINK-11536 [DTC],2025-006K,2026-07-07T23:41:35.679264,15.70955937,.0002789,42.9996,134.6375,240.4608,119.5982,0,U,62563,999,8552,.15191E-2,.200233E-2,0
STARLINK-11540 [DTC],2025-006L,2026-07-07T05:53:27.613536,15.70853991,.00026149,43.0000,139.4074,239.8618,120.1991,0,U,62564,999,8540,.93597971E-3,.121502E-2,0
STARLINK-11523 [DTC],2025-006M,2026-07-07T06:01:06.548736,15.71027969,.00026269,43.0003,139.4506,273.4116,86.6451,0,U,62565,999,8540,.16824816E-2,.223097E-2,0
STARLINK-11525 [DTC],2025-006N,2026-07-08T03:45:52.953696,15.70816121,.0001382,42.9988,134.2120,214.7198,145.3580,0,U,62566,999,8554,-.26201E-3,-.33897E-3,0
STARLINK-32752,2025-006P,2026-07-07T11:46:29.027136,15.27595452,.00018458,43.0009,336.0967,273.2151,86.8489,0,U,62567,999,8318,.51430429E-3,.13924E-3,0
STARLINK-32760,2025-006Q,2026-07-07T10:19:41.871936,15.27604037,.00046712,42.9980,336.4860,139.8990,220.2207,0,U,62568,999,8317,.83914502E-3,.22923E-3,0
STARLINK-32715,2025-006R,2026-07-07T10:32:40.242624,15.27590653,.00015644,42.9997,336.5671,271.7936,88.2736,0,U,62569,999,8317,.76405613E-3,.20829E-3,0
